[{"OBJECT_NAME":"STARLINK-31684","OBJECT_ID":"2024-071J","EPOCH":"2026-03-08T19:31:52.154976","MEAN_MOTION":15.27581574,"ECCENTRICITY":6.373e-5,"INCLINATION":42.998,"RA_OF_ASC_NODE":352.3031,"ARG_OF_PERICENTER":257.0512,"MEAN_ANOMALY":103.0268,"EPHEMERIS_TYPE":0,"CLASSIFICATION_TYPE":"U","NORAD_CAT_ID":59492,"ELEMENT_SET_NO":999,"REV_AT_EPOCH":10798,"BSTAR":-0.00013350334,"MEAN_MOTION_DOT":-3.934e-5,"MEAN_MOTION_DDOT":0},{"OBJECT_NAME":"BLUEBON","OBJECT_ID":"2025-009CH","EPOCH":"2026-03-09T16:52:33.225312","MEAN_MOTION":15.29047254,"ECCENTRICITY":0.00011933,"INCLINATION":97.4017,"RA_OF_ASC_NODE":152.2033,"ARG_OF_PERICENTER":43.39,"MEAN_ANOMALY":316.7434,"EPHEMERIS_TYPE":0,"CLASSIFICATION_TYPE":"U","NORAD_CAT_ID":62688,"ELEMENT_SET_NO":999,"REV_AT_EPOCH":6376,"BSTAR":0.00037313027,"MEAN_MOTION_DOT":0.00010452,"MEAN_MOTION_DDOT":0}]
